[{"OBJECT_NAME":"YAOGAN-36 04A","OBJECT_ID":"2022-171A","EPOCH":"2026-03-09T13:33:55.536768","MEAN_MOTION":15.19645021,"ECCENTRICITY":0.0007143,"INCLINATION":34.9894,"RA_OF_ASC_NODE":125.487,"ARG_OF_PERICENTER":123.655,"MEAN_ANOMALY":236.4846,"EPHEMERIS_TYPE":0,"CLASSIFICATION_TYPE":"U","NORAD_CAT_ID":54746,"ELEMENT_SET_NO":999,"REV_AT_EPOCH":17995,"BSTAR":0.00040159,"MEAN_MOTION_DOT":8.745e-5,"MEAN_MOTION_DDOT":0},{"OBJECT_NAME":"FLOCK 4H-3","OBJECT_ID":"2025-276AS","EPOCH":"2026-03-09T22:45:50.100192","MEAN_MOTION":15.18704804,"ECCENTRICITY":0.00037272,"INCLINATION":97.4304,"RA_OF_ASC_NODE":144.2438,"ARG_OF_PERICENTER":9.3748,"MEAN_ANOMALY":350.7555,"EPHEMERIS_TYPE":0,"CLASSIFICATION_TYPE":"U","NORAD_CAT_ID":66706,"ELEMENT_SET_NO":999,"REV_AT_EPOCH":1535,"BSTAR":0.00044066638,"MEAN_MOTION_DOT":9.081e-5,"MEAN_MOTION_DDOT":0}]
